{
 "type": "FeatureCollection",
 "sample": true,
 "_comment": "SAMPLE DATA — placeholder shapes for demonstration only, not real observations. Replace with real data (see README.md).",
 "properties_schema": {
  "burn_month": "YYYY-MM",
  "area_ha": "number"
 },
 "features": [
  {
   "type": "Feature",
   "properties": {
    "sample": true,
    "name": "Sample burn scar 1",
    "burn_month": "2026-03",
    "area_ha": 80
   },
   "geometry": {
    "type": "Polygon",
    "coordinates": [
     [
      [
       92.86998,
       23.82
      ],
      [
       92.86953,
       23.82732
      ],
      [
       92.86193,
       23.83
      ],
      [
       92.85428,
       23.82906
      ],
      [
       92.84963,
       23.82345
      ],
      [
       92.85061,
       23.81687
      ],
      [
       92.85615,
       23.81391
      ],
      [
       92.86122,
       23.81365
      ],
      [
       92.86625,
       23.8152
      ],
      [
       92.86998,
       23.82
      ]
     ]
    ]
   }
  },
  {
   "type": "Feature",
   "properties": {
    "sample": true,
    "name": "Sample burn scar 2",
    "burn_month": "2026-03",
    "area_ha": 79
   },
   "geometry": {
    "type": "Polygon",
    "coordinates": [
     [
      [
       92.63407,
       23.55
      ],
      [
       92.63054,
       23.55811
      ],
      [
       92.62197,
       23.56023
      ],
      [
       92.61475,
       23.55834
      ],
      [
       92.61125,
       23.55292
      ],
      [
       92.60539,
       23.54512
      ],
      [
       92.61242,
       23.53796
      ],
      [
       92.62262,
       23.53638
      ],
      [
       92.62922,
       23.54291
      ],
      [
       92.63407,
       23.55
      ]
     ]
    ]
   }
  },
  {
   "type": "Feature",
   "properties": {
    "sample": true,
    "name": "Sample burn scar 3",
    "burn_month": "2026-03",
    "area_ha": 111
   },
   "geometry": {
    "type": "Polygon",
    "coordinates": [
     [
      [
       92.75813,
       22.95
      ],
      [
       92.7602,
       22.95788
      ],
      [
       92.75256,
       22.96336
      ],
      [
       92.7432,
       22.96084
      ],
      [
       92.74189,
       22.95272
      ],
      [
       92.74039,
       22.94678
      ],
      [
       92.74376,
       22.94005
      ],
      [
       92.75142,
       22.94256
      ],
      [
       92.75746,
       22.94424
      ],
      [
       92.75813,
       22.95
      ]
     ]
    ]
   }
  },
  {
   "type": "Feature",
   "properties": {
    "sample": true,
    "name": "Sample burn scar 4",
    "burn_month": "2026-03",
    "area_ha": 72
   },
   "geometry": {
    "type": "Polygon",
    "coordinates": [
     [
      [
       93.55951,
       24.95
      ],
      [
       93.55861,
       24.95655
      ],
      [
       93.55132,
       24.95681
      ],
      [
       93.54417,
       24.95916
      ],
      [
       93.53919,
       24.95357
      ],
      [
       93.53855,
       24.94622
      ],
      [
       93.54373,
       24.94016
      ],
      [
       93.55236,
       24.93786
      ],
      [
       93.5602,
       24.94224
      ],
      [
       93.55951,
       24.95
      ]
     ]
    ]
   }
  },
  {
   "type": "Feature",
   "properties": {
    "sample": true,
    "name": "Sample burn scar 5",
    "burn_month": "2026-03",
    "area_ha": 171
   },
   "geometry": {
    "type": "Polygon",
    "coordinates": [
     [
      [
       94.03108,
       25.62
      ],
      [
       94.03124,
       25.6285
      ],
      [
       94.02156,
       25.62796
      ],
      [
       94.01293,
       25.63105
      ],
      [
       94.01054,
       25.6231
      ],
      [
       94.01242,
       25.61751
      ],
      [
       94.01424,
       25.611
      ],
      [
       94.02141,
       25.61278
      ],
      [
       94.02695,
       25.61474
      ],
      [
       94.03108,
       25.62
      ]
     ]
    ]
   }
  },
  {
   "type": "Feature",
   "properties": {
    "sample": true,
    "name": "Sample burn scar 6",
    "burn_month": "2026-03",
    "area_ha": 51
   },
   "geometry": {
    "type": "Polygon",
    "coordinates": [
     [
      [
       90.55697,
       25.48
      ],
      [
       90.55644,
       25.48487
      ],
      [
       90.55156,
       25.48799
      ],
      [
       90.54587,
       25.48645
      ],
      [
       90.54121,
       25.48289
      ],
      [
       90.54214,
       25.47742
      ],
      [
       90.54579,
       25.47341
      ],
      [
       90.55101,
       25.47484
      ],
      [
       90.55513,
       25.47612
      ],
      [
       90.55697,
       25.48
      ]
     ]
    ]
   }
  },
  {
   "type": "Feature",
   "properties": {
    "sample": true,
    "name": "Sample burn scar 7",
    "burn_month": "2026-03",
    "area_ha": 116
   },
   "geometry": {
    "type": "Polygon",
    "coordinates": [
     [
      [
       91.76541,
       23.95
      ],
      [
       91.75758,
       23.95581
      ],
      [
       91.75247,
       23.96278
      ],
      [
       91.74512,
       23.95773
      ],
      [
       91.73941,
       23.95352
      ],
      [
       91.74188,
       23.9473
      ],
      [
       91.74585,
       23.94343
      ],
      [
       91.7516,
       23.94171
      ],
      [
       91.75825,
       23.94367
      ],
      [
       91.76541,
       23.95
      ]
     ]
    ]
   }
  }
 ]
}
